     2.100          NAVIGATION                              RINEX VERSION / TYPE
fic2rin                                 04/06/2013 00:14:31 PGM / RUN BY / DATE
                                                            END OF HEADER
17 13  4  5 16  0  0.0  .329762697220D-04 -.397903932026D-11  .000000000000D+00
     .570000000000D+02 -.811250000000D+02  .431232248268D-08  .301946814993D+01
    -.418163836002D-05  .829780346248D-02  .707618892193D-05  .515361161041D+04
     .489600000000D+06 -.372529029846D-08 -.147288744758D+01 -.894069671631D-07
     .964709900520D+00  .244187500000D+03 -.220188570979D+01 -.796997483859D-08
    -.158578033983D-09  .100000000000D+01  .173400000000D+04  .000000000000D+00
     .240000000000D+01  .000000000000D+00 -.102445483208D-07  .570000000000D+02
     .482406000000D+06  .400000000000D+01
18 13  4  5 16  0  0.0  .247407238930D-03  .193267624127D-11  .000000000000D+00
     .840000000000D+02  .412500000000D+02  .565666419420D-08 -.177687082770D+01
     .220723450184D-05  .140429041348D-01  .517442822456D-05  .515358761597D+04
     .489600000000D+06  .247731804848D-06  .583570143559D+00 -.204890966415D-07
     .927884163608D+00  .256937500000D+03 -.211878020834D+01 -.853035532354D-08
     .349657421778D-09  .100000000000D+01  .173400000000D+04  .000000000000D+00
     .340000000000D+01  .000000000000D+00 -.107102096081D-07  .840000000000D+02
     .482406000000D+06  .400000000000D+01
19 13  4  5 16  0  0.0 -.362344086170D-03 -.318323145621D-11  .000000000000D+00
     .950000000000D+02 -.983125000000D+02  .445768568050D-08  .235096455806D+01
    -.500679016113D-05  .907983595971D-02  .739470124245D-05  .515368963814D+04
     .489600000000D+06 -.122934579849D-06 -.142076101098D+01 -.745058059692D-08
     .961970962386D+00  .238625000000D+03  .285129274356D+00 -.816426864599D-08
    -.251439044874D-09  .100000000000D+01  .173400000000D+04  .000000000000D+00
     .240000000000D+01  .000000000000D+00 -.149011611938D-07  .950000000000D+02
     .482406000000D+06  .400000000000D+01
20 13  4  5 16  0  0.0  .915224663913D-04  .181898940355D-11  .000000000000D+00
     .920000000000D+02  .515625000000D+02  .569666586043D-08 -.121216684581D+01
     .283867120743D-05  .550797604956D-02  .614859163761D-05  .515376560593D+04
     .489600000000D+06 -.372529029846D-08  .530085029106D+00  .130385160446D-06
     .928627969677D+00  .246968750000D+03  .129831856695D+01 -.870429114009D-08
     .320013329840D-09  .100000000000D+01  .173400000000D+04  .000000000000D+00
     .240000000000D+01  .000000000000D+00 -.791624188423D-08  .920000000000D+02
     .482406000000D+06  .400000000000D+01
21 13  4  5 16  0  0.0 -.290201976895D-03 -.216004991671D-11  .000000000000D+00
     .210000000000D+02  .100937500000D+02  .514950021164D-08 -.675958370779D+00
     .819563865662D-06  .201901170658D-01  .113919377327D-04  .515371107483D+04
     .489600000000D+06 -.186264514923D-08 -.464148850646D+00  .407919287682D-06
     .931811096552D+00  .148062500000D+03 -.215488013600D+01 -.860678707866D-08
     .333585323739D-09  .100000000000D+01  .173400000000D+04  .000000000000D+00
     .240000000000D+01  .000000000000D+00 -.111758708954D-07  .210000000000D+02
     .482406000000D+06  .400000000000D+01
22 13  4  5 16  0  0.0  .163394492120D-03  .136424205266D-11  .000000000000D+00
     .700000000000D+01  .405937500000D+02  .574773941642D-08 -.234622407589D+01
     .197999179363D-05  .639016227797D-02  .545755028725D-05  .515364578629D+04
     .489600000000D+06  .987201929092D-07  .586277756228D+00  .372529029846D-08
     .925624714430D+00  .252937500000D+03 -.204407937021D+01 -.864143137887D-08
     .322156276245D-09  .100000000000D+01  .173400000000D+04  .000000000000D+00
     .240000000000D+01  .000000000000D+00 -.172294676304D-07  .700000000000D+01
     .482406000000D+06  .400000000000D+01
23 13  4  5 16  0  0.0  .980892218649D-04 -.363797880709D-11  .000000000000D+00
     .800000000000D+02 -.364375000000D+02  .495484924650D-08  .188178456244D+01
    -.171549618244D-05  .832746969536D-02  .761821866035D-05  .515373046303D+04
     .489600000000D+06 -.894069671631D-07  .164216993476D+01  .124797224998D-06
     .956090290644D+00  .234312500000D+03 -.290870659473D+01 -.834999066777D-08
    -.495377777330D-09  .100000000000D+01  .173400000000D+04  .000000000000D+00
     .240000000000D+01  .000000000000D+00 -.200234353542D-07  .800000000000D+02
     .482406000000D+06  .400000000000D+01
24 13  4  5 16  0  0.0 -.395439565182D-05 -.682121026330D-12  .000000000000D+00
     .860000000000D+02  .458437500000D+02  .445804283824D-08  .101461559383D+01
     .251270830631D-05  .869644456543D-03  .100191682577D-04  .515369482040D+04
     .489600000000D+06  .186264514923D-07  .266888792363D+01  .447034835815D-07
     .959239665074D+00  .182906250000D+03  .325213814895D+00 -.804890669784D-08
    -.610739725475D-10  .100000000000D+01  .173400000000D+04  .000000000000D+00
     .340000000000D+01  .000000000000D+00  .325962901115D-08  .860000000000D+02
     .482406000000D+06  .400000000000D+01
25 13  4  5 16  0  0.0  .844788737595D-04  .363797880709D-11  .000000000000D+00
     .670000000000D+02  .264062500000D+02  .449447292712D-08 -.871765562546D+00
     .128522515297D-05  .241880083922D-02  .436604022980D-05  .515355903244D+04
     .489600000000D+06  .614672899246D-07 -.256643000264D+01 -.223517417908D-07
     .972449708537D+00  .302187500000D+03  .576750822615D+00 -.831356057888D-08
     .113576159474D-09  .100000000000D+01  .173400000000D+04  .000000000000D+00
     .240000000000D+01  .000000000000D+00  .558793544769D-08  .670000000000D+02
     .482406000000D+06  .400000000000D+01
26 13  4  5 16  0  0.0 -.388519838452D-04  .148929757415D-10  .000000000000D+00
     .890000000000D+02 -.325937500000D+02  .422267589140D-08  .181107154391D+01
    -.211782753468D-05  .212765478063D-01  .813975930214D-05  .515366437340D+04
     .489600000000D+06 -.135973095894D-06  .172167814699D+01 -.467523932457D-06
     .979294570567D+00  .234593750000D+03  .122944601493D+01 -.784604110482D-08
    -.410017078857D-09  .100000000000D+01  .173400000000D+04  .000000000000D+00
     .240000000000D+01  .000000000000D+00 -.605359673500D-08  .890000000000D+02
     .482406000000D+06  .400000000000D+01
27 13  4  5 16  0  0.0 -.180336181074D-03  .125055521494D-11  .000000000000D+00
     .580000000000D+02  .295312500000D+02  .558416117416D-08 -.228321627468D+01
     .155903398991D-05  .604693288915D-02  .437349081039D-05  .515365225029D+04
     .489600000000D+06 -.409781932831D-07 -.255005197643D+01 -.651925802231D-07
     .977282209715D+00  .305218750000D+03  .834140291166D+00 -.811140930133D-08
     .227152318949D-09  .100000000000D+01  .173400000000D+04  .000000000000D+00
     .485000000000D+01  .630000000000D+02 -.190921127796D-07  .580000000000D+02
     .482406000000D+06  .400000000000D+01
28 13  4  5 16  0  0.0  .247279182076D-03  .329691829393D-11  .000000000000D+00
     .330000000000D+02  .287500000000D+02  .405731186047D-08 -.246521922516D+01
     .148080289364D-05  .185992256738D-01  .428408384323D-05  .515364129448D+04
     .489600000000D+06  .227242708206D-06 -.250411334976D+01 -.186264514923D-08
     .982728261662D+00  .307125000000D+03 -.177267638556D+01 -.776960934970D-08
     .251796202608D-09  .100000000000D+01  .173400000000D+04  .000000000000D+00
     .240000000000D+01  .000000000000D+00 -.107102096081D-07  .330000000000D+02
     .482406000000D+06  .400000000000D+01
29 13  4  5 16  0  0.0  .423592980951D-03  .352429196937D-11  .000000000000D+00
     .120000000000D+02 -.869062500000D+02  .439339728835D-08 -.375863788258D+00
    -.447034835815D-05  .196787470486D-02  .792369246483D-05  .515367337990D+04
     .489600000000D+06 -.745058059692D-07 -.146412578397D+01 -.130385160446D-07
     .965333185545D+00  .229468750000D+03 -.107634280776D+01 -.812569561070D-08
    -.250010413937D-09  .100000000000D+01  .173400000000D+04  .000000000000D+00
     .240000000000D+01  .000000000000D+00 -.977888703346D-08  .120000000000D+02
     .482406000000D+06  .400000000000D+01
31 13  4  5 16  0  0.0  .309439841658D-03  .147792889038D-11  .000000000000D+00
     .770000000000D+02  .495625000000D+02  .394230707006D-08  .212431200338D+00
     .246986746788D-05  .798030721489D-02  .110305845737D-04  .515357173157D+04
     .489600000000D+06  .428408384323D-07  .270083125045D+01 -.102445483208D-06
     .980718599895D+00  .179531250000D+03 -.747358656522D+00 -.792140138673D-08
    -.192865176466D-10  .100000000000D+01  .173400000000D+04  .000000000000D+00
     .240000000000D+01  .000000000000D+00 -.130385160446D-07  .770000000000D+02
     .482406000000D+06  .400000000000D+01
32 13  4  5 16  0  0.0 -.548323150724D-03 -.261479726760D-11  .000000000000D+00
     .790000000000D+02  .374687500000D+02  .532950770967D-08  .781088879258D+00
     .193528831005D-05  .115664268378D-01  .563263893127D-05  .515371783066D+04
     .489600000000D+06  .255182385445D-06  .668767797800D+00 -.372529029846D-07
     .949764981044D+00  .266437500000D+03 -.377162148535D+00 -.855499920720D-08
     .218223375594D-09  .100000000000D+01  .173400000000D+04  .000000000000D+00
     .240000000000D+01  .000000000000D+00 -.325962901115D-08  .790000000000D+02
     .482406000000D+06  .400000000000D+01
 2 13  4  5 15 59 44.0  .425802078098D-03  .193267624127D-11  .000000000000D+00
     .100000000000D+01 -.937500000000D+00  .486127392014D-08  .166335921619D+01
     .186264514923D-08  .122471856885D-01  .116173177958D-04  .515364257812D+04
     .489584000000D+06 -.229105353355D-06 -.484635360859D+00  .141561031342D-06
     .938975753938D+00  .141843750000D+03 -.262909707414D+01 -.826177270742D-08
     .123219418298D-09  .100000000000D+01  .173400000000D+04  .000000000000D+00
     .240000000000D+01  .000000000000D+00 -.176951289177D-07  .100000000000D+01
     .482916000000D+06  .400000000000D+01
